#dP2021  4 25 18  0  0.00000000      96 __u+U ITR00 EXT  IAC
## 2155  64800.00000000   900.00000000 59329 0.7500000000000
+  116   C06C07C08C09C10C11C12C13C14C16C19C20C21C22C23C24C25
+        C26C27C28C29C30C32C33C34C35C36C37C38C39C40C41C42C43
+        C44C45C46E01E02E03E04E05E07E08E09E11E12E13E14E15E18
+        E19E21E24E25E26E27E30E31E33E36G01G02G03G04G05G06G07
+        G08G09G10G12G13G14G15G16G17G18G19G20G21G22G23G24G25
+        G26G27G28G29G30G31G32J01J02J03R01R02R03R04R05R07R08
+        R09R11R12R13R14R15R16R17R18R19R20R21R22R24  0  0  0
++        11  9  9  9  8 10  8 10  9  9  7  8  8  8  8  7 10
++         8 10 10  9  7  9  8 10  8  8  9 10 12 10 10  7  8
++         7  8  9  9  8  9  8  7  7  8  8  7  8  9  8  7  7
++         9  7  7  8  8  7  7  8  7  8  8  7  8  8  9  7  7
++         8  7  8  7  8  7  7  9  9  7  6  8  8  7  8  7  8
++         7  8  7  8  8  8  8 12 10  9  9  9  8  8  8  8  8
++        10  9  7  8  7  7  7  7  7 10 10 10  9  8  0  0  0
%c M  cc GPS ccc cccc cccc cccc cccc ccccc ccccc ccccc ccccc
%c cc cc ccc ccc cccc cccc cccc cccc ccccc ccccc ccccc ccccc
%f  0.0000000  0.000000000  0.00000000000  0.000000000000000
%f  0.0000000  0.000000000  0.00000000000  0.000000000000000
%i    0    0    0    0      0      0      0      0         0
%i    0    0    0    0      0      0      0      0         0
/* IAC                                ULTRA-RAPID PREDICTION
/* S/V CLOCKS ARE ALIGNED TO GNSS TIME                      
/* G:C1WC2W R:C1PC2P E:C1XC5X C:C2IC6I J:C1CC2S             
/* PCV:IGS14_2148 OL/AL:FES2004  NONE     YN ORB:CoN CLK:CoN
*  2021 04 26 11 15  0.00000000
PC06 -25397.837325  26837.238387 -20277.234494    318.687490
PC07 -13349.678542  36494.385998 -15456.774924   -159.776865
PC08  -8511.079728  19916.107790  36311.625792   -890.858642
PC09 -10424.167312  27155.512851 -30375.287856    567.958271
PC10  -2512.110665  41769.637219  -2331.761833    -51.083022
PC11  26889.324697  -7532.023183    269.021090    635.523781
PC12  22046.025285   4711.458965  16486.427664    910.369161
PC13   4784.933700  27536.786604  31755.631694    236.879022
PC14  16558.874156  -9726.807437 -20236.906715    568.844090
PC16 -21654.215452  27542.119808 -23486.237638   -803.987675
PC19 -14332.330374  19210.541622  14307.172990    812.646759
PC20 -16199.375388    389.269862  22738.016755   -944.885138
PC21   8426.974247  19591.333238 -17960.068761   -947.541173
PC22  -4117.444278  27446.562110  -2732.012621   -962.794649
PC23  -2954.670372 -20757.768001  18417.370872   -894.455239
PC24  23097.930685   8988.348795  12837.296470   -827.192628
PC25  13654.357218  -9314.039988  22480.655902   -926.511974
PC26  19231.838657  20009.890836  -3097.860030    915.597795
PC27 -14257.181193 -11108.786998 -21288.519174    521.716980
PC28   6347.384911 -17082.145518 -21134.967177    -81.689546
PC29 -22632.314575  13894.260349   8574.635794    384.030211
PC30 -26218.340638   1967.344692  -9398.989547    463.205838
PC32  -8603.804807 -19552.386199  17984.202261   -942.284202
PC33  14244.072413 -19280.266112 -14292.471810   -942.276841
PC34  26379.076169  -2407.127752   8724.675351   -687.215723
PC35  -6139.093611  17386.063126  20951.003606   -309.156750
PC36 -14125.365579   8691.594386 -22420.652905   -729.210852
PC37 -18227.036040 -20748.876238   3951.511459   -905.957317
PC38  -5379.108634  24205.277908  34150.238778    144.755173
PC39 -16868.947639  29068.988777 -25530.696707     30.617417
PC40  -8529.410674  40886.918613  -5161.617961    154.940176
PC41   4167.644161 -27481.251285   2525.270114   -946.631491
PC42  16108.057678    385.143980 -22736.452697   -920.207304
PC43  22956.936956 -13607.420226  -8120.783970   -702.877364
PC44  14414.141568  10860.867215  21263.956734    157.175723
PC45   3180.355250  20726.312825 -18421.470995    424.021542
PC46 -22916.877172  -8125.284778 -13660.471655    298.673065
PE01  -3551.743630 -27896.902875   9224.639965  -1095.043255
PE02   3640.465723  27934.384963  -9121.085427    214.880741
PE03  -6517.765355  24575.670632 -15140.346633   -424.330339
PE04 -10835.002328 -13546.615696  23995.744945   -758.168823
PE05 -20319.597586  21346.805108   2746.793248   -285.769679
PE07  22118.792027  -5729.043029 -18812.514117   -530.350269
PE08  11052.198573  13112.168812 -24118.487737   6011.690983
PE09 -22038.914704   6036.721030  18815.511076   5688.105668
PE11 -29297.089725  -2500.310789   3506.286595   6052.006295
PE12 -21385.841070 -13638.924627 -15278.775459   5240.690422
PE13  29308.026413   2685.020991  -3095.814490    415.559734
PE14 -13385.534523  18275.193499   8675.082834  -1410.167857
PE15  21433.722471  13510.289438  15301.396528    817.476276
PE18   7760.291878 -24612.464022 -19293.944429  -1543.025968
PE19   8530.440652 -24946.895074  13465.867098    261.820474
PE21   9877.556453 -16733.766565  22323.042284   -661.489373
PE24 -18272.704950  -5426.055642 -22654.057612   -867.663370
PE25  -9996.736927  16563.835633 -22402.392829   -532.036115
PE26  19294.482567 -10155.648267 -20013.854051   1880.433537
PE27  18143.046822   4541.949954  22944.387704    -19.398191
PE30  15213.128809  23658.819069   9232.013002   2994.163615
PE31 -15681.761396 -22992.235869 -10071.480972   -480.542543
PE33   -984.641644 -16359.437799 -24645.854978   -467.942809
PE36 -19919.640498   9701.461672  19638.777746   -198.885208
PG01 -20951.069014 -14402.990272  -8535.064196    706.011824
PG02  -1068.746050  15699.919871  22048.950484   -599.050642
PG03 -12624.808504 -18788.011165  13902.694641   -147.418324
PG04 -12957.302063  -8974.972448  21393.697239   -193.670370
PG05   4643.840473  26039.554353    590.806572    -40.180656
PG06 -14025.820472   9288.197053  20630.995706     10.298677
PG07 -25534.742395  -6771.337785  -4323.589739    133.483168
PG08  -4803.402268 -15093.411021 -21278.462764    -18.924014
PG09 -20434.689233   1475.628354  16858.083229   -341.571689
PG10  12537.010524 -10942.614656 -20521.176451   -109.774289
PG12   9865.510889  21611.706302  11774.052615    -32.932832
PG13  -5418.748364  18277.738700 -18569.673896    124.585119
PG14 -13482.334088   9979.816464 -20599.472605     92.796229
PG15   7330.281380  14947.478846 -21001.287614   -153.546716
PG16    882.416341 -25981.643785   3808.745068   -315.668693
PG17 -22518.248611  13691.435287  -2866.757975    432.635464
PG18  24861.751269   3763.456207  -8660.302671    351.414393
PG19 -19897.444923  16732.204380   4858.544763     -7.910135
PG20  15469.676704  17310.147992 -13142.431582    522.792444
PG21 -16167.617344 -15298.567148 -14124.887092    113.813731
PG22 -10206.476916 -24123.792124   5154.719320   -628.941272
PG23  15491.169864   1427.751084 -21551.472241    111.175060
PG24  17663.713019  15473.145896 -13026.321742     37.072798
PG25  15224.501586   9555.291394  19378.179879    125.860543
PG26   5244.725101 -22308.073772  13142.309996     77.325168
PG27   6974.726449 -19768.211915 -16255.987958   -119.534942
PG28 -11806.339870  14234.448697 -18600.965192    580.862190
PG29  20394.847388   -409.666725  16984.995995   -336.665134
PG30 -21054.874426   3833.118587 -15820.061644   -418.044151
PG31  11903.207816 -11090.437623  20991.701076   -113.810912
PG32  21114.297022 -15870.026781  -1569.092775     21.959811
PJ01 -31792.966705  25527.430924  15668.821969   -370.454074
PJ02 -19035.355997  23863.407425 -24659.868421      6.458270
PJ03 -30808.392534  26981.188709  15171.618006     -4.137404
PR01  -7851.006926  -9401.124168  22384.377960     78.492800
PR02 -14244.219198  11918.305998  17560.423588    476.312910
PR03 -10925.198020  22991.118110   2068.652086     34.875589
PR04  -1629.711907  20932.880320 -14456.032560     84.100953
PR05   8554.318888   7266.007778 -22891.022351     70.644766
PR07  10598.988747 -23141.068548  -1259.409515    -42.521428
PR08   1425.241527 -20902.996294  14597.124075    -58.717632
PR09  13734.065635    507.887679  21487.756930    -10.150216
PR11 -11257.766194 -21192.827845   8673.765342     -0.721178
PR12 -17604.563212 -15838.739340  -9431.034932    223.981891
PR13 -13889.922469  -1292.144740 -21374.214483    -53.959045
PR14  -1604.146310  14555.881721 -20873.955598     63.583720
PR15  11201.033080  21401.990597  -8181.430647    104.155640
PR16  18115.812490  14816.646089  10277.041925    -14.302129
PR17 -14304.335228  10112.245604  18533.236837    419.044193
PR18   3576.656008  10065.152337  23171.742169     74.458865
PR19  19009.145177   5550.450511  16073.812850   -141.311398
PR20  25102.347231  -3342.359270  -2834.697128    -48.013616
PR21  13266.741607 -10194.967498 -19264.690584   -204.528879
PR22  -4877.619303  -9828.989899 -23052.902016   -109.723767
PR24 -24919.199033   4118.005656   3559.089787     40.328153
EOF
